NORAD_CAT_ID,OBJECT_NAME,OBJECT_TYPE,EPOCH,MEAN_MOTION,ECCENTRICITY,INCLINATION,RA_OF_ASC_NODE,ARG_OF_PERICENTER,MEAN_ANOMALY,BSTAR,MEAN_MOTION_DOT,MEAN_MOTION_DDOT,TLE_LINE0,TLE_LINE1,TLE_LINE2,SEMIMAJOR_AXIS,PERIOD,APOGEE,PERIGEE,DECAYED
53976.0,STARLINK-5134,PAYLOAD,2023-02-16 09:38:13,15.08843267,2.29e-05,53.2175,179.5992,357.1157,2.9834,0.00015688,2.21e-05,0.0,0 STARLINK-5134,1 53976U 22125N   23047.40154303  .00002210  00000-0  15688-3 0  9994,2 53976  53.2175 179.5992 0000229 357.1157   2.9834 15.08843267 21002,6917.87,95.437,539.894,539.577,0.0
53976.0,STARLINK-5134,PAYLOAD,2023-02-16 12:48:59,15.08835702,6.57e-05,53.2181,179.0026,73.7611,286.3453,-3.2623e-05,-8.07e-06,0.0,0 STARLINK-5134,1 53976U 22125N   23047.53402575 -.00000807  00000-0 -32623-4 0  9996,2 53976  53.2181 179.0026 0000657  73.7611 286.3453 15.08835702 20956,6917.894,95.438,540.213,539.304,0.0
53976.0,STARLINK-5134,PAYLOAD,2023-02-17 07:53:37,15.08836664,4.76e-05,53.2169,175.4333,13.0299,347.0706,0.0001315,1.806e-05,0.0,0 STARLINK-5134,1 53976U 22125N   23048.32890916  .00001806  00000-0  13150-3 0  9995,2 53976  53.2169 175.4333 0000476  13.0299 347.0706 15.08836664 21079,6917.891,95.438,540.085,539.426,0.0
53976.0,STARLINK-5134,PAYLOAD,2023-02-18 07:44:25,15.08834584,7.5e-05,53.2181,170.9734,62.4962,297.6106,9.8998e-05,1.288e-05,0.0,0 STARLINK-5134,1 53976U 22125N   23049.32251537  .00001288  00000-0  98998-4 0  9994,2 53976  53.2181 170.9734 0000750  62.4962 297.6106 15.08834584 21295,6917.897,95.438,540.281,539.243,0.0
53976.0,STARLINK-5134,PAYLOAD,2023-02-18 14:05:57,15.08833661,8.27e-05,53.217,169.7826,81.2466,278.862,8.9091e-05,1.13e-05,0.0,0 STARLINK-5134,1 53976U 22125N   23049.58747672  .00001130  00000-0  89091-4 0  9992,2 53976  53.2170 169.7826 0000827  81.2466 278.8620 15.08833661 21268,6917.9,95.438,540.337,539.193,0.0
53976.0,STARLINK-5134,PAYLOAD,2023-02-19 10:45:58,15.08846872,0.0001054,53.2193,165.9203,61.4902,298.6196,0.00024014,3.537e-05,0.0,0 STARLINK-5134,1 53976U 22125N   23050.44859286  .00003537  00000-0  24014-3 0  9990,2 53976  53.2193 165.9203 0001054  61.4902 298.6196 15.08846872 21466,6917.859,95.437,540.454,538.995,0.0
53976.0,STARLINK-5134,PAYLOAD,2023-02-19 13:56:44,15.08859944,0.0001152,53.2178,165.3239,81.6582,278.4541,0.00044262,6.767e-05,0.0,0 STARLINK-5134,1 53976U 22125N   23050.58106558  .00006767  00000-0  44262-3 0  9997,2 53976  53.2178 165.3239 0001152  81.6582 278.4541 15.08859944 21418,6917.819,95.436,540.481,538.887,0.0
53976.0,STARLINK-5134,PAYLOAD,2023-02-19 17:07:30,15.08863275,0.0001147,53.2178,164.7287,85.795,274.3173,0.00046405,7.11e-05,0.0,0 STARLINK-5134,1 53976U 22125N   23050.71354258  .00007110  00000-0  46405-3 0  9998,2 53976  53.2178 164.7287 0001147  85.7950 274.3173 15.08863275 21500,6917.809,95.436,540.468,538.881,0.0
53976.0,STARLINK-5134,PAYLOAD,2023-02-20 01:04:26,15.08843619,0.0001038,53.2181,163.2436,80.4753,279.6356,0.00016889,2.401e-05,0.0,0 STARLINK-5134,1 53976U 22125N   23051.04475070  .00002401  00000-0  16889-3 0  9992,2 53976  53.2181 163.2436 0001038  80.4753 279.6356 15.08843619 21552,6917.869,95.437,540.452,539.016,0.0
53976.0,STARLINK-5134,PAYLOAD,2023-02-20 13:47:31,15.08840086,0.0001239,53.2187,160.8665,85.0942,275.0192,0.00012193,1.653e-05,0.0,0 STARLINK-5134,1 53976U 22125N   23051.57467379  .00001653  00000-0  12193-3 0  9995,2 53976  53.2187 160.8665 0001239  85.0942 275.0192 15.08840086 21563,6917.88,95.438,540.602,538.888,0.0
53976.0,STARLINK-5134,PAYLOAD,2023-02-21 10:27:32,15.08845376,0.0001213,53.2167,156.9981,97.8056,262.3074,0.00014881,2.082e-05,0.0,0 STARLINK-5134,1 53976U 22125N   23052.43578844  .00002082  00000-0  14881-3 0  9994,2 53976  53.2167 156.9981 0001213  97.8056 262.3074 15.08845376 21764,6917.864,95.437,540.568,538.89,0.0
53976.0,STARLINK-5134,PAYLOAD,2023-02-21 13:38:18,15.08858048,0.0001177,53.2175,156.4044,92.7319,267.3808,0.00049887,7.664e-05,0.0,0 STARLINK-5134,1 53976U 22125N   23052.56826665  .00007664  00000-0  49887-3 0  9990,2 53976  53.2175 156.4044 0001177  92.7319 267.3808 15.08858048 21718,6917.825,95.436,540.504,538.876,0.0
53976.0,STARLINK-5134,PAYLOAD,2023-02-21 18:24:27,15.08875609,0.0001198,53.2179,155.5129,95.2514,264.8615,0.0019876,0.00031517,0.0,0 STARLINK-5134,1 53976U 22125N   23052.76698504  .00031517  00000-0  19876-2 0  9999,2 53976  53.2179 155.5129 0001198  95.2514 264.8615 15.08875609 21815,6917.772,95.435,540.465,538.808,0.0
53976.0,STARLINK-5134,PAYLOAD,2023-02-22 02:21:23,15.08851108,0.0001171,53.2182,154.0264,98.2672,261.8453,0.00080014,0.00012473,0.0,0 STARLINK-5134,1 53976U 22125N   23053.09818873  .00012473  00000-0  80014-3 0  9992,2 53976  53.2182 154.0264 0001171  98.2672 261.8453 15.08851108 21862,6917.846,95.437,540.522,538.901,0.0
53976.0,STARLINK-5134,PAYLOAD,2023-02-22 11:53:42,15.0884793,0.0001105,53.2181,152.2427,81.7376,278.3741,0.0011721,0.00018419,0.0,0 STARLINK-5134,1 53976U 22125N   23053.49562932  .00018419  00000-0  11721-2 0  9992,2 53976  53.2181 152.2427 0001105  81.7376 278.3741 15.08847930 21925,6917.856,95.437,540.486,538.957,0.0
53976.0,STARLINK-5134,PAYLOAD,2023-02-22 23:01:24,15.08846016,0.0001188,53.2175,150.161,80.5408,279.5718,0.0011428,0.00017949,0.0,0 STARLINK-5134,1 53976U 22125N   23053.95931145  .00017949  00000-0  11428-2 0  9990,2 53976  53.2175 150.1610 0001188  80.5408 279.5718 15.08846016 21991,6917.862,95.437,540.549,538.905,0.0
53976.0,STARLINK-5134,PAYLOAD,2023-02-23 10:09:06,15.08836373,0.000106,53.2174,148.0793,87.7689,272.3425,0.0015418,0.00024332,0.0,0 STARLINK-5134,1 53976U 22125N   23054.42299574  .00024332  00000-0  15418-2 0  9993,2 53976  53.2174 148.0793 0001060  87.7689 272.3425 15.08836373 21998,6917.891,95.438,540.49,539.023,0.0
53976.0,STARLINK-5134,PAYLOAD,2023-02-23 16:30:39,15.0884909,0.0001191,53.2174,146.8896,90.8398,269.273,0.0017587,0.00027819,0.0,0 STARLINK-5134,1 53976U 22125N   23054.68795542  .00027819  00000-0  17587-2 0  9999,2 53976  53.2174 146.8896 0001191  90.8398 269.2730 15.08849090 22103,6917.853,95.437,540.542,538.894,0.0
53976.0,STARLINK-5134,PAYLOAD,2023-02-23 22:52:12,15.0884755,0.0001364,53.2173,145.7002,86.3486,273.7662,0.0012695,0.00019978,0.0,0 STARLINK-5134,1 53976U 22125N   23054.95291723  .00019978  00000-0  12695-2 0  9993,2 53976  53.2173 145.7002 0001364  86.3486 273.7662 15.08847550 22146,6917.857,95.437,540.666,538.779,0.0
53976.0,STARLINK-5134,PAYLOAD,2023-02-24 09:59:53,15.08853928,0.0001552,53.2168,143.6191,81.5592,278.5576,0.001062,0.00016661,0.0,0 STARLINK-5134,1 53976U 22125N   23055.41659508  .00016661  00000-0  10620-2 0  9996,2 53976  53.2168 143.6191 0001552  81.5592 278.5576 15.08853928 22211,6917.838,95.437,540.776,538.629,0.0
53976.0,STARLINK-5134,PAYLOAD,2023-02-24 11:35:16,15.08849213,0.0001369,53.2174,143.3225,82.8715,277.2433,0.00058726,9.073e-05,0.0,0 STARLINK-5134,1 53976U 22125N   23055.48283444  .00009073  00000-0  58726-3 0  9994,2 53976  53.2174 143.3225 0001369  82.8715 277.2433 15.08849213 22153,6917.852,95.437,540.664,538.77,0.0
53976.0,STARLINK-5134,PAYLOAD,2023-02-24 17:56:49,15.08860489,0.0001458,53.2168,142.1319,86.0191,274.0968,0.00071623,0.00011136,0.0,0 STARLINK-5134,1 53976U 22125N   23055.74778985  .00011136  00000-0  71623-3 0  9996,2 53976  53.2168 142.1319 0001458  86.0191 274.0968 15.08860489 22190,6917.818,95.436,540.691,538.674,0.0
53976.0,STARLINK-5134,PAYLOAD,2023-02-24 22:42:58,15.08826012,6.21e-05,53.218,141.2428,211.7808,148.3147,-0.00089408,-0.00014483,0.0,0 STARLINK-5134,1 53976U 22125N   23055.94650844 -.00014483  00000-0 -89408-3 0  9991,2 53976  53.2180 141.2428 0000621 211.7808 148.3147 15.08826012 22295,6917.923,95.438,540.218,539.359,0.0
53976.0,STARLINK-5134,PAYLOAD,2023-02-25 14:36:50,15.08835354,0.0001164,53.218,138.2627,92.7524,267.3602,8.7387e-06,-1.49e-06,0.0,0 STARLINK-5134,1 53976U 22125N   23056.60891989 -.00000149  00000-0  87387-5 0  9991,2 53976  53.2180 138.2627 0001164  92.7524 267.3602 15.08835354 22328,6917.895,95.438,540.565,538.954,0.0
53976.0,STARLINK-5134,PAYLOAD,2023-02-25 17:47:36,15.08835476,0.0001142,53.2178,137.6669,101.5325,258.5795,2.742e-05,1.49e-06,0.0,0 STARLINK-5134,1 53976U 22125N   23056.74140004  .00000149  00000-0  27420-4 0  9991,2 53976  53.2178 137.6669 0001142 101.5325 258.5795 15.08835476 22418,6917.894,95.438,540.549,538.969,0.0
53976.0,STARLINK-5134,PAYLOAD,2023-02-25 22:33:46,15.08839089,0.0001113,53.2169,136.7785,94.5019,265.6101,0.00017561,2.508e-05,0.0,0 STARLINK-5134,1 53976U 22125N   23056.94011984  .00002508  00000-0  17561-3 0  9992,2 53976  53.2169 136.7785 0001113  94.5019 265.6101 15.08839089 22375,6917.883,95.438,540.518,538.978,0.0
53976.0,STARLINK-5134,PAYLOAD,2023-02-26 04:55:18,15.08846879,0.0001091,53.2167,135.5891,94.0688,266.0429,0.00040775,6.209e-05,0.0,0 STARLINK-5134,1 53976U 22125N   23057.20507895  .00006209  00000-0  40775-3 0  9998,2 53976  53.2167 135.5891 0001091  94.0688 266.0429 15.08846879 22485,6917.859,95.437,540.479,538.97,0.0
53976.0,STARLINK-5134,PAYLOAD,2023-02-26 11:16:51,15.08861644,0.0001246,53.2154,134.4003,96.2827,263.8307,0.0012238,0.00019254,0.0,0 STARLINK-5134,1 53976U 22125N   23057.47003712  .00019254  00000-0  12238-2 0  9992,2 53976  53.2154 134.4003 0001246  96.2827 263.8307 15.08861644 22459,6917.814,95.436,540.541,538.817,0.0
53976.0,STARLINK-5134,PAYLOAD,2023-02-26 22:24:33,15.08853193,0.0001877,53.2168,132.32,68.9514,291.1678,0.00056509,8.72e-05,0.0,0 STARLINK-5134,1 53976U 22125N   23057.93371917  .00008720  00000-0  56509-3 0  9994,2 53976  53.2168 132.3200 0001877  68.9514 291.1678 15.08853193 22599,6917.84,95.437,541.004,538.407,0.0
53976.0,STARLINK-5134,PAYLOAD,2023-02-27 11:07:38,15.08849229,0.000149,53.2178,129.941,91.7132,268.4031,0.00028375,4.232e-05,0.0,0 STARLINK-5134,1 53976U 22125N   23058.46363577  .00004232  00000-0  28375-3 0  9990,2 53976  53.2178 129.9410 0001490  91.7132 268.4031 15.08849229 22670,6917.852,95.437,540.748,538.686,0.0
